OBJECT_NAME,OBJECT_ID,EPOCH,MEAN_MOTION,ECCENTRICITY,INCLINATION,RA_OF_ASC_NODE,ARG_OF_PERICENTER,MEAN_ANOMALY,EPHEMERIS_TYPE,CLASSIFICATION_TYPE,NORAD_CAT_ID,ELEMENT_SET_NO,REV_AT_EPOCH,BSTAR,MEAN_MOTION_DOT,MEAN_MOTION_DDOT
STARLINK-37376,2026-123AB,2026-06-16T04:00:01.998720,15.80847249,.000066,53.1577,246.2824,37.9973,303.8069,0,U,69378,999,313,.63647E-3,.126625E-2,0
STARLINK-37383,2026-123AC,2026-06-16T04:00:01.998720,15.80840944,.0001394,53.1572,246.2096,86.9073,289.6150,0,U,69379,999,313,.26793E-3,.52425E-3,0
STARLINK-37411,2026-123AD,2026-06-16T04:00:01.998720,15.80848196,.0000805,53.1576,246.2675,78.5218,270.1467,0,U,69380,999,313,.40167E-3,.79217E-3,0
STARLINK-37427,2026-123AE,2026-06-16T04:00:01.998720,15.80820483,.0001062,53.1572,246.2188,93.9044,278.1592,0,U,69381,999,304,.52594E-3,.104109E-2,0
QIANFAN-165,2026-124A,2026-06-16T01:20:06.786240,14.13769567,.0001772,88.9976,2.1675,169.7746,190.3477,0,U,69382,999,165,-.12089E+1,-.2109876E-1,0
QIANFAN-166,2026-124B,2026-06-15T23:33:17.629056,14.14903562,.0003801,88.9976,2.1775,207.7737,152.3248,0,U,69383,999,164,-.1177E+1,-.2098646E-1,0
QIANFAN-167,2026-124C,2026-06-15T13:23:59.310240,14.14488199,.00049829,88.9981,2.2257,164.0190,196.1155,0,U,69384,999,158,-.11683555E+1,-.2069702E-1,0
QIANFAN-168,2026-124D,2026-06-15T21:47:02.744160,14.15868227,.0006838,88.9980,2.1835,191.6708,168.4322,0,U,69385,999,163,-.11294E+1,-.20538E-1,0
QIANFAN-169,2026-124E,2026-06-15T13:16:16.433472,14.16502879,.00068162,88.9976,2.2227,203.5127,156.5751,0,U,69386,999,158,-.10519428E+1,-.1943706E-1,0
QIANFAN-170,2026-124F,2026-06-16T02:46:47.751744,14.20040912,.0002432,88.9975,2.1599,129.7344,230.4060,0,U,69387,999,166,.27899E-4,.74E-6,0
QIANFAN-171,2026-124G,2026-06-16T01:02:08.477952,14.18861707,.0006375,88.9966,2.1655,199.8711,160.2231,0,U,69388,999,165,-.10882E+1,-.2089237E-1,0
QIANFAN-172,2026-124H,2026-06-16T02:45:03.817728,14.21599532,.0001843,88.9982,2.1583,154.5437,205.5845,0,U,69389,999,166,.28128E-4,.76E-6,0
QIANFAN-173,2026-124J,2026-06-16T02:42:22.922784,14.22005427,.0002476,88.9983,2.1581,151.2634,208.8694,0,U,69390,999,166,.28248E-4,.77E-6,0
QIANFAN-174,2026-124K,2026-06-15T21:34:15.544992,14.19450718,.0006759,88.9971,2.1820,176.7023,183.4213,0,U,69391,999,163,-.10345E+1,-.2013987E-1,0
QIANFAN-175,2026-124L,2026-06-16T00:57:19.452672,14.19503775,.0005009,88.9968,2.1659,194.8620,165.2424,0,U,69392,999,165,-.10614E+1,-.206427E-1,0
QIANFAN-176,2026-124M,2026-06-15T13:07:40.399968,14.21621112,.00027159,88.9975,2.2218,318.0752,42.0231,0,U,69393,999,158,-.10494153E+1,-.2119033E-1,0
QIANFAN-177,2026-124N,2026-06-15T09:44:04.866432,14.25688492,.00030317,88.9981,2.2376,158.8133,201.3186,0,U,69394,999,156,.10253172E-4,.39E-6,0
QIANFAN-178,2026-124P,2026-06-16T00:55:19.672032,14.21206064,.0004655,88.9982,2.1647,134.9628,225.1940,0,U,69395,999,165,-.10602E+1,-.2123926E-1,0
QIANFAN-179,2026-124Q,2026-06-16T02:34:08.484096,14.25729216,.0002796,88.9985,2.1568,164.7985,195.3293,0,U,69396,999,166,.30048E-4,.86E-6,0
QIANFAN-180,2026-124R,2026-06-16T00:51:02.107584,14.20905502,.0001941,88.9975,2.1650,142.0176,218.1152,0,U,69397,999,165,-.9253E+0,-.1861776E-1,0
QIANFAN-181,2026-124S,2026-06-16T01:17:03.255360,14.13695464,.0004002,88.9984,2.1680,157.4366,202.6997,0,U,69398,999,165,-.11376E+1,-.1991702E-1,0
QIANFAN-182,2026-124T,2026-06-15T21:43:14.205792,14.16797096,.0007477,88.9977,2.1837,198.2087,161.8835,0,U,69399,999,163,-.10949E+1,-.2027679E-1,0
DTC TEST OBJECT A,2026-128A,2026-06-15T21:11:52.080288,15.55780003,.0008379,54.9944,311.0525,284.2235,75.7870,0,U,69472,999,102,.33927E-3,.23412E-3,0
DTC TEST OBJECT B,2026-128B,2026-06-15T21:10:01.727616,15.56219840,.0008448,55.0033,311.0492,285.2598,74.7504,0,U,69473,999,101,.4055E-3,.28562E-3,0
TJS-25,2026-129A,2026-06-11T11:34:53.014656,1.72502163,.7751889,16.5302,30.5351,199.9639,91.9387,0,U,69474,999,7,.19774E-2,.7407E-4,0
2026-132A,2026-132A,2026-06-16T03:41:33.720864,14.99043892,.0012399,97.6911,230.8432,274.8337,85.1470,0,U,69502,999,62,.49196E-4,.538E-5,0
2026-132B,2026-132B,2026-06-16T03:41:12.175296,14.99134290,.0012311,97.6942,230.8452,277.0948,82.8875,0,U,69503,999,62,.29199E-4,.296E-5,0
BRO-22,2026-132C,2026-06-16T03:38:45.121632,14.99757954,.0013808,97.6882,230.8421,288.8226,71.1499,0,U,69504,999,62,.75319E-4,.872E-5,0
2026-132D,2026-132D,2026-06-16T03:33:11.183040,15.01725287,.001171,97.6817,230.8394,297.0190,62.9838,0,U,69505,999,62,.11329E-3,.1415E-4,0
